[{"CCSDS_OMM_VERS":"2.0","COMMENT":"GENERATED VIA SPACE-TRACK.ORG API","CREATION_DATE":"2015-06-17T01:14:12","ORIGINATOR":"18 SPCS","OBJECT_NAME":"GALILEO-FM3","OBJECT_ID":"2012-055A","CENTER_NAME":"EARTH","REF_FRAME":"TEME","TIME_SYSTEM":"UTC","MEAN_ELEMENT_THEORY":"SGP4","EPOCH":"2015-06-06T19:32:35.638368","MEAN_MOTION":"1.70473619","ECCENTRICITY":"0.00047800","INCLINATION":"54.9927","RA_OF_ASC_NODE":"212.6052","ARG_OF_PERICENTER":"229.7849","MEAN_ANOMALY":"130.2636","EPHEMERIS_TYPE":"0","CLASSIFICATION_TYPE":"U","NORAD_CAT_ID":"38857","ELEMENT_SET_NO":"999","REV_AT_EPOCH":"1648","BSTAR":"0.00000000000000","MEAN_MOTION_DOT":"0.00000046","MEAN_MOTION_DDOT":"0.0000000000000","SEMIMAJOR_AXIS":"29600.363","PERIOD":"844.705","APOAPSIS":"23236.377","PERIAPSIS":"23208.079","OBJECT_TYPE":"PAYLOAD","RCS_SIZE":"LARGE","COUNTRY_CODE":"ESA","LAUNCH_DATE":"2012-10-12","SITE":"FRGUI","DECAY_DATE":null,"FILE":"1886007","GP_ID":"99494289","TLE_LINE0":"0 GALILEO-FM3","TLE_LINE1":"1 38857U 12055A   15157.81430137 +.00000046 +00000-0 +00000-0 0  9990","TLE_LINE2":"2 38857 054.9927 212.6052 0004780 229.7849 130.2636 01.70473619016485"},{"CCSDS_OMM_VERS":"2.0","COMMENT":"GENERATED VIA SPACE-TRACK.ORG API","CREATION_DATE":"2015-06-10T22:32:33","ORIGINATOR":"18 SPCS","OBJECT_NAME":"GALILEO-FM3","OBJECT_ID":"2012-055A","CENTER_NAME":"EARTH","REF_FRAME":"TEME","TIME_SYSTEM":"UTC","MEAN_ELEMENT_THEORY":"SGP4","EPOCH":"2015-06-10T08:00:39.164831","MEAN_MOTION":"1.70473594","ECCENTRICITY":"0.00048710","INCLINATION":"54.9923","RA_OF_ASC_NODE":"212.5071","ARG_OF_PERICENTER":"230.5506","MEAN_ANOMALY":"129.4861","EPHEMERIS_TYPE":"0","CLASSIFICATION_TYPE":"U","NORAD_CAT_ID":"38857","ELEMENT_SET_NO":"999","REV_AT_EPOCH":"1655","BSTAR":"0.00000000000000","MEAN_MOTION_DOT":"0.00000039","MEAN_MOTION_DDOT":"0.0000000000000","SEMIMAJOR_AXIS":"29600.366","PERIOD":"844.705","APOAPSIS":"23236.650","PERIAPSIS":"23207.813","OBJECT_TYPE":"PAYLOAD","RCS_SIZE":"LARGE","COUNTRY_CODE":"ESA","LAUNCH_DATE":"2012-10-12","SITE":"FRGUI","DECAY_DATE":null,"FILE":"1883958","GP_ID":"99390472","TLE_LINE0":"0 GALILEO-FM3","TLE_LINE1":"1 38857U 12055A   15161.33378663  .00000039  00000-0  00000+0 0  9998","TLE_LINE2":"2 38857 054.9923 212.5071 0004871 230.5506 129.4861 01.70473594 16552"},{"CCSDS_OMM_VERS":"2.0","COMMENT":"GENERATED VIA SPACE-TRACK.ORG API","CREATION_DATE":"2015-06-16T18:30:49","ORIGINATOR":"18 SPCS","OBJECT_NAME":"GALILEO-FM3","OBJECT_ID":"2012-055A","CENTER_NAME":"EARTH","REF_FRAME":"TEME","TIME_SYSTEM":"UTC","MEAN_ELEMENT_THEORY":"SGP4","EPOCH":"2015-06-11T12:10:01.276608","MEAN_MOTION":"1.70473615","ECCENTRICITY":"0.00048840","INCLINATION":"54.9923","RA_OF_ASC_NODE":"212.4745","ARG_OF_PERICENTER":"230.7974","MEAN_ANOMALY":"129.2421","EPHEMERIS_TYPE":"0","CLASSIFICATION_TYPE":"U","NORAD_CAT_ID":"38857","ELEMENT_SET_NO":"999","REV_AT_EPOCH":"1656","BSTAR":"0.00000000000000","MEAN_MOTION_DOT":"0.00000043","MEAN_MOTION_DDOT":"0.0000000000000","SEMIMAJOR_AXIS":"29600.364","PERIOD":"844.705","APOAPSIS":"23236.686","PERIAPSIS":"23207.772","OBJECT_TYPE":"PAYLOAD","RCS_SIZE":"LARGE","COUNTRY_CODE":"ESA","LAUNCH_DATE":"2012-10-12","SITE":"FRGUI","DECAY_DATE":null,"FILE":"1885698","GP_ID":"99431382","TLE_LINE0":"0 GALILEO-FM3","TLE_LINE1":"1 38857U 12055A   15162.50695922 +.00000043 +00000-0 +00000-0 0  9994","TLE_LINE2":"2 38857 054.9923 212.4745 0004884 230.7974 129.2421 01.70473615016569"},{"CCSDS_OMM_VERS":"2.0","COMMENT":"GENERATED VIA SPACE-TRACK.ORG API","CREATION_DATE":"2015-06-18T13:56:43","ORIGINATOR":"18 SPCS","OBJECT_NAME":"GALILEO-FM3","OBJECT_ID":"2012-055A","CENTER_NAME":"EARTH","REF_FRAME":"TEME","TIME_SYSTEM":"UTC","MEAN_ELEMENT_THEORY":"SGP4","EPOCH":"2015-06-17T23:01:31.297728","MEAN_MOTION":"1.70473746","ECCENTRICITY":"0.00049890","INCLINATION":"54.9913","RA_OF_ASC_NODE":"212.2949","ARG_OF_PERICENTER":"232.1101","MEAN_ANOMALY":"127.9326","EPHEMERIS_TYPE":"0","CLASSIFICATION_TYPE":"U","NORAD_CAT_ID":"38857","ELEMENT_SET_NO":"999","REV_AT_EPOCH":"1668","BSTAR":"0.00000000000000","MEAN_MOTION_DOT":"0.00000036","MEAN_MOTION_DDOT":"0.0000000000000","SEMIMAJOR_AXIS":"29600.349","PERIOD":"844.704","APOAPSIS":"23236.981","PERIAPSIS":"23207.446","OBJECT_TYPE":"PAYLOAD","RCS_SIZE":"LARGE","COUNTRY_CODE":"ESA","LAUNCH_DATE":"2012-10-12","SITE":"FRGUI","DECAY_DATE":null,"FILE":"1886723","GP_ID":"99517026","TLE_LINE0":"0 GALILEO-FM3","TLE_LINE1":"1 38857U 12055A   15168.95939002  .00000036  00000-0  00000+0 0  9990","TLE_LINE2":"2 38857 054.9913 212.2949 0004989 232.1101 127.9326 01.70473746 16683"},{"CCSDS_OMM_VERS":"2.0","COMMENT":"GENERATED VIA SPACE-TRACK.ORG API","CREATION_DATE":"2015-06-19T20:47:57","ORIGINATOR":"18 SPCS","OBJECT_NAME":"GALILEO-FM3","OBJECT_ID":"2012-055A","CENTER_NAME":"EARTH","REF_FRAME":"TEME","TIME_SYSTEM":"UTC","MEAN_ELEMENT_THEORY":"SGP4","EPOCH":"2015-06-18T13:06:11.753568","MEAN_MOTION":"1.70473749","ECCENTRICITY":"0.00049910","INCLINATION":"54.9912","RA_OF_ASC_NODE":"212.2786","ARG_OF_PERICENTER":"232.1657","MEAN_ANOMALY":"127.8742","EPHEMERIS_TYPE":"0","CLASSIFICATION_TYPE":"U","NORAD_CAT_ID":"38857","ELEMENT_SET_NO":"999","REV_AT_EPOCH":"1668","BSTAR":"0.00000000000000","MEAN_MOTION_DOT":"0.00000033","MEAN_MOTION_DDOT":"0.0000000000000","SEMIMAJOR_AXIS":"29600.348","PERIOD":"844.704","APOAPSIS":"23236.987","PERIAPSIS":"23207.440","OBJECT_TYPE":"PAYLOAD","RCS_SIZE":"LARGE","COUNTRY_CODE":"ESA","LAUNCH_DATE":"2012-10-12","SITE":"FRGUI","DECAY_DATE":null,"FILE":"1887334","GP_ID":"99551190","TLE_LINE0":"0 GALILEO-FM3","TLE_LINE1":"1 38857U 12055A   15169.54596937 +.00000033 +00000-0 +00000-0 0  9990","TLE_LINE2":"2 38857 054.9912 212.2786 0004991 232.1657 127.8742 01.70473749016684"},{"CCSDS_OMM_VERS":"2.0","COMMENT":"GENERATED VIA SPACE-TRACK.ORG API","CREATION_DATE":"2015-06-23T22:35:23","ORIGINATOR":"18 SPCS","OBJECT_NAME":"GALILEO-FM3","OBJECT_ID":"2012-055A","CENTER_NAME":"EARTH","REF_FRAME":"TEME","TIME_SYSTEM":"UTC","MEAN_ELEMENT_THEORY":"SGP4","EPOCH":"2015-06-23T19:48:17.327520","MEAN_MOTION":"1.70473844","ECCENTRICITY":"0.00050410","INCLINATION":"54.9904","RA_OF_ASC_NODE":"212.1318","ARG_OF_PERICENTER":"233.3065","MEAN_ANOMALY":"126.7185","EPHEMERIS_TYPE":"0","CLASSIFICATION_TYPE":"U","NORAD_CAT_ID":"38857","ELEMENT_SET_NO":"999","REV_AT_EPOCH":"1678","BSTAR":"0.00000000000000","MEAN_MOTION_DOT":"0.00000049","MEAN_MOTION_DDOT":"0.0000000000000","SEMIMAJOR_AXIS":"29600.337","PERIOD":"844.704","APOAPSIS":"23237.124","PERIAPSIS":"23207.281","OBJECT_TYPE":"PAYLOAD","RCS_SIZE":"LARGE","COUNTRY_CODE":"ESA","LAUNCH_DATE":"2012-10-12","SITE":"FRGUI","DECAY_DATE":null,"FILE":"1889153","GP_ID":"99586756","TLE_LINE0":"0 GALILEO-FM3","TLE_LINE1":"1 38857U 12055A   15174.82520055  .00000049  00000-0  00000+0 0  9991","TLE_LINE2":"2 38857 054.9904 212.1318 0005041 233.3065 126.7185 01.70473844 16784"},{"CCSDS_OMM_VERS":"2.0","COMMENT":"GENERATED VIA SPACE-TRACK.ORG API","CREATION_DATE":"2015-06-29T06:29:01","ORIGINATOR":"18 SPCS","OBJECT_NAME":"GALILEO-FM3","OBJECT_ID":"2012-055A","CENTER_NAME":"EARTH","REF_FRAME":"TEME","TIME_SYSTEM":"UTC","MEAN_ELEMENT_THEORY":"SGP4","EPOCH":"2015-06-28T12:25:46.200575","MEAN_MOTION":"1.70473790","ECCENTRICITY":"0.00051010","INCLINATION":"54.9898","RA_OF_ASC_NODE":"212.0012","ARG_OF_PERICENTER":"234.0932","MEAN_ANOMALY":"125.9468","EPHEMERIS_TYPE":"0","CLASSIFICATION_TYPE":"U","NORAD_CAT_ID":"38857","ELEMENT_SET_NO":"999","REV_AT_EPOCH":"1686","BSTAR":"0.00000000000000","MEAN_MOTION_DOT":"0.00000083","MEAN_MOTION_DDOT":"0.0000000000000","SEMIMAJOR_AXIS":"29600.344","PERIOD":"844.704","APOAPSIS":"23237.308","PERIAPSIS":"23207.109","OBJECT_TYPE":"PAYLOAD","RCS_SIZE":"LARGE","COUNTRY_CODE":"ESA","LAUNCH_DATE":"2012-10-12","SITE":"FRGUI","DECAY_DATE":null,"FILE":"1891683","GP_ID":"99635491","TLE_LINE0":"0 GALILEO-FM3","TLE_LINE1":"1 38857U 12055A   15179.51789584  .00000083  00000-0  00000+0 0  9994","TLE_LINE2":"2 38857 054.9898 212.0012 0005101 234.0932 125.9468 01.70473790 16868"},{"CCSDS_OMM_VERS":"2.0","COMMENT":"GENERATED VIA SPACE-TRACK.ORG API","CREATION_DATE":"2015-07-01T06:30:36","ORIGINATOR":"18 SPCS","OBJECT_NAME":"GALILEO-FM3","OBJECT_ID":"2012-055A","CENTER_NAME":"EARTH","REF_FRAME":"TEME","TIME_SYSTEM":"UTC","MEAN_ELEMENT_THEORY":"SGP4","EPOCH":"2015-06-30T20:44:29.538528","MEAN_MOTION":"1.70473725","ECCENTRICITY":"0.00051180","INCLINATION":"54.9896","RA_OF_ASC_NODE":"211.9361","ARG_OF_PERICENTER":"234.2861","MEAN_ANOMALY":"125.7535","EPHEMERIS_TYPE":"0","CLASSIFICATION_TYPE":"U","NORAD_CAT_ID":"38857","ELEMENT_SET_NO":"999","REV_AT_EPOCH":"1690","BSTAR":"0.00000000000000","MEAN_MOTION_DOT":"0.00000089","MEAN_MOTION_DDOT":"0.0000000000000","SEMIMAJOR_AXIS":"29600.351","PERIOD":"844.704","APOAPSIS":"23237.366","PERIAPSIS":"23207.067","OBJECT_TYPE":"PAYLOAD","RCS_SIZE":"LARGE","COUNTRY_CODE":"ESA","LAUNCH_DATE":"2012-10-12","SITE":"FRGUI","DECAY_DATE":null,"FILE":"1892537","GP_ID":"99652444","TLE_LINE0":"0 GALILEO-FM3","TLE_LINE1":"1 38857U 12055A   15181.86423077  .00000089  00000-0  00000+0 0  9993","TLE_LINE2":"2 38857 054.9896 211.9361 0005118 234.2861 125.7535 01.70473725 16908"}]